OSCAR 7 (AO-7)          
1 07530U 74089B   25172.28541208 -.00000029  00000+0  10591-3 0  9990
2 07530 101.9927 176.6740 0012638  99.6170 272.3047 12.53689707315292
PHASE 3B (AO-10)        
1 14129U 83058B   25169.60464980 -.00000162  00000+0  00000+0 0  9999
2 14129  26.6651 280.9523 6063150  14.6773 357.0258  2.05870752287994
UOSAT 2 (UO-11)         
1 14781U 84021B   25172.35796659  .00000893  00000+0  99714-4 0  9996
2 14781  97.7550 138.4938 0006457 304.9441  55.1170 14.89418793203399
LUSAT (LO-19)           
1 20442U 90005G   25172.45805975  .00000091  00000+0  49445-4 0  9995
2 20442  98.8976 179.0067 0011589 178.3025 181.8200 14.33958769850694
EYESAT A (AO-27)        
1 22825U 93061C   25172.59551307  .00000062  00000+0  40941-4 0  9999
2 22825  98.7360 234.2108 0009523  79.9095 280.3161 14.30803177655430
ITAMSAT (IO-26)         
1 22826U 93061D   25172.12148845  .00000072  00000+0  44378-4 0  9997
2 22826  98.7307 233.6187 0009948  67.0678 293.1553 14.31216584655661
RADIO ROSTO (RS-15)     
1 23439U 94085A   25172.59447249 -.00000017  00000+0  71195-3 0  9992
2 23439  64.8130 166.3764 0145677  71.9918 289.6820 11.27581557255248
JAS-2 (FO-29)           
1 24278U 96046B   25172.43361688 -.00000021  00000+0  17270-4 0  9998
2 24278  98.5747  64.7652 0349118 312.0348  45.1557 13.53249469424375
TECHSAT 1B (GO-32)      
1 25397U 98043D   25172.84486312  .00000039  00000+0  36988-4 0  9992
2 25397  98.9707 152.2202 0001743 135.9692 224.1625 14.24317882400255
ISS (ZARYA)             
1 25544U 98067A   25172.77582696  .00011097  00000+0  20093-3 0  9991
2 25544  51.6361 284.3345 0002144 270.0300  90.0443 15.50170919515870
PCSAT (NO-44)           
1 26931U 01043C   25172.52132621  .00000082  00000+0  61819-4 0  9996
2 26931  67.0509  96.9655 0006110 276.4871  83.5535 14.31740019238971
SAUDISAT 1C (SO-50)     
1 27607U 02058C   25172.36455756  .00001009  00000+0  14309-3 0  9994
2 27607  64.5512 164.1580 0057704 331.4409  28.3538 14.81652756210972
CUTE-1 (CO-55)          
1 27844U 03031E   25172.48422429  .00000239  00000+0  12324-3 0  9992
2 27844  98.6752 180.6038 0010292 146.7647 213.4180 14.24004912140336
CUBESAT XI-IV (CO-57)   
1 27848U 03031J   25170.96195212  .00000217  00000+0  11517-3 0  9993
2 27848  98.6781 179.0990 0009739 167.4525 192.6897 14.23337603139842
