[
  {
    "OBJECT_NAME": "OSCAR 7 (AO-7)",
    "OBJECT_ID": "1974-089B",
    "EPOCH": "2025-06-21T06:50:59.603712",
    "MEAN_MOTION": 12.53689707,
    "ECCENTRICITY": 0.0012638,
    "INCLINATION": 101.9927,
    "RA_OF_ASC_NODE": 176.674,
    "ARG_OF_PERICENTER": 99.617,
    "MEAN_ANOMALY": 272.3047,
    "EPHEMERIS_TYPE": 0,
    "CLASSIFICATION_TYPE": "U",
    "NORAD_CAT_ID": 7530,
    "ELEMENT_SET_NO": 999,
    "REV_AT_EPOCH": 31529,
    "BSTAR": 0.00010591,
    "MEAN_MOTION_DOT": -2.9e-07,
    "MEAN_MOTION_DDOT": 0
  },
  {
    "OBJECT_NAME": "PHASE 3B (AO-10)",
    "OBJECT_ID": "1983-058B",
    "EPOCH": "2025-06-18T14:30:41.742720",
    "MEAN_MOTION": 2.05870752,
    "ECCENTRICITY": 0.606315,
    "INCLINATION": 26.6651,
    "RA_OF_ASC_NODE": 280.9523,
    "ARG_OF_PERICENTER": 14.6773,
    "MEAN_ANOMALY": 357.0258,
    "EPHEMERIS_TYPE": 0,
    "CLASSIFICATION_TYPE": "U",
    "NORAD_CAT_ID": 14129,
    "ELEMENT_SET_NO": 999,
    "REV_AT_EPOCH": 28799,
    "BSTAR": 0,
    "MEAN_MOTION_DOT": -1.62e-06,
    "MEAN_MOTION_DDOT": 0
  },
  {
    "OBJECT_NAME": "UOSAT 2 (UO-11)",
    "OBJECT_ID": "1984-021B",
    "EPOCH": "2025-06-21T08:35:28.313376",
    "MEAN_MOTION": 14.89418793,
    "ECCENTRICITY": 0.0006457,
    "INCLINATION": 97.755,
    "RA_OF_ASC_NODE": 138.4938,
    "ARG_OF_PERICENTER": 304.9441,
    "MEAN_ANOMALY": 55.117,
    "EPHEMERIS_TYPE": 0,
    "CLASSIFICATION_TYPE": "U",
    "NORAD_CAT_ID": 14781,
    "ELEMENT_SET_NO": 999,
    "REV_AT_EPOCH": 20339,
    "BSTAR": 9.9714e-05,
    "MEAN_MOTION_DOT": 8.93e-06,
    "MEAN_MOTION_DDOT": 0
  },
  {
    "OBJECT_NAME": "LUSAT (LO-19)",
    "OBJECT_ID": "1990-005G",
    "EPOCH": "2025-06-21T10:59:36.362400",
    "MEAN_MOTION": 14.33958769,
    "ECCENTRICITY": 0.0011589,
    "INCLINATION": 98.8976,
    "RA_OF_ASC_NODE": 179.0067,
    "ARG_OF_PERICENTER": 178.3025,
    "MEAN_ANOMALY": 181.82,
    "EPHEMERIS_TYPE": 0,
    "CLASSIFICATION_TYPE": "U",
    "NORAD_CAT_ID": 20442,
    "ELEMENT_SET_NO": 999,
    "REV_AT_EPOCH": 85069,
    "BSTAR": 4.9445e-05,
    "MEAN_MOTION_DOT": 9.1e-07,
    "MEAN_MOTION_DDOT": 0
  },
  {
    "OBJECT_NAME": "EYESAT A (AO-27)",
    "OBJECT_ID": "1993-061C",
    "EPOCH": "2025-06-21T14:17:32.329248",
    "MEAN_MOTION": 14.30803177,
    "ECCENTRICITY": 0.0009523,
    "INCLINATION": 98.736,
    "RA_OF_ASC_NODE": 234.2108,
    "ARG_OF_PERICENTER": 79.9095,
    "MEAN_ANOMALY": 280.3161,
    "EPHEMERIS_TYPE": 0,
    "CLASSIFICATION_TYPE": "U",
    "NORAD_CAT_ID": 22825,
    "ELEMENT_SET_NO": 999,
    "REV_AT_EPOCH": 65543,
    "BSTAR": 4.0941e-05,
    "MEAN_MOTION_DOT": 6.2e-07,
    "MEAN_MOTION_DDOT": 0
  },
  {
    "OBJECT_NAME": "ITAMSAT (IO-26)",
    "OBJECT_ID": "1993-061D",
    "EPOCH": "2025-06-21T02:54:56.602080",
    "MEAN_MOTION": 14.31216584,
    "ECCENTRICITY": 0.0009948,
    "INCLINATION": 98.7307,
    "RA_OF_ASC_NODE": 233.6187,
    "ARG_OF_PERICENTER": 67.0678,
    "MEAN_ANOMALY": 293.1553,
    "EPHEMERIS_TYPE": 0,
    "CLASSIFICATION_TYPE": "U",
    "NORAD_CAT_ID": 22826,
    "ELEMENT_SET_NO": 999,
    "REV_AT_EPOCH": 65566,
    "BSTAR": 4.4378e-05,
    "MEAN_MOTION_DOT": 7.2e-07,
    "MEAN_MOTION_DDOT": 0
  },
  {
    "OBJECT_NAME": "RADIO ROSTO (RS-15)",
    "OBJECT_ID": "1994-085A",
    "EPOCH": "2025-06-21T14:16:02.423136",
    "MEAN_MOTION": 11.27581557,
    "ECCENTRICITY": 0.0145677,
    "INCLINATION": 64.813,
    "RA_OF_ASC_NODE": 166.3764,
    "ARG_OF_PERICENTER": 71.9918,
    "MEAN_ANOMALY": 289.682,
    "EPHEMERIS_TYPE": 0,
    "CLASSIFICATION_TYPE": "U",
    "NORAD_CAT_ID": 23439,
    "ELEMENT_SET_NO": 999,
    "REV_AT_EPOCH": 25524,
    "BSTAR": 0.00071195,
    "MEAN_MOTION_DOT": -1.7e-07,
    "MEAN_MOTION_DDOT": 0
  },
  {
    "OBJECT_NAME": "JAS-2 (FO-29)",
    "OBJECT_ID": "1996-046B",
    "EPOCH": "2025-06-21T10:24:24.498432",
    "MEAN_MOTION": 13.53249469,
    "ECCENTRICITY": 0.0349118,
    "INCLINATION": 98.5747,
    "RA_OF_ASC_NODE": 64.7652,
    "ARG_OF_PERICENTER": 312.0348,
    "MEAN_ANOMALY": 45.1557,
    "EPHEMERIS_TYPE": 0,
    "CLASSIFICATION_TYPE": "U",
    "NORAD_CAT_ID": 24278,
    "ELEMENT_SET_NO": 999,
    "REV_AT_EPOCH": 42437,
    "BSTAR": 1.727e-05,
    "MEAN_MOTION_DOT": -2.1e-07,
    "MEAN_MOTION_DDOT": 0
  },
  {
    "OBJECT_NAME": "TECHSAT 1B (GO-32)",
    "OBJECT_ID": "1998-043D",
    "EPOCH": "2025-06-21T20:16:36.173568",
    "MEAN_MOTION": 14.24317882,
    "ECCENTRICITY": 0.0001743,
    "INCLINATION": 98.9707,
    "RA_OF_ASC_NODE": 152.2202,
    "ARG_OF_PERICENTER": 135.9692,
    "MEAN_ANOMALY": 224.1625,
    "EPHEMERIS_TYPE": 0,
    "CLASSIFICATION_TYPE": "U",
    "NORAD_CAT_ID": 25397,
    "ELEMENT_SET_NO": 999,
    "REV_AT_EPOCH": 40025,
    "BSTAR": 3.6988e-05,
    "MEAN_MOTION_DOT": 3.9e-07,
    "MEAN_MOTION_DDOT": 0
  },
  {
    "OBJECT_NAME": "ISS (ZARYA)",
    "OBJECT_ID": "1998-067A",
    "EPOCH": "2025-06-21T18:37:11.449344",
    "MEAN_MOTION": 15.50170919,
    "ECCENTRICITY": 0.0002144,
    "INCLINATION": 51.6361,
    "RA_OF_ASC_NODE": 284.3345,
    "ARG_OF_PERICENTER": 270.03,
    "MEAN_ANOMALY": 90.0443,
    "EPHEMERIS_TYPE": 0,
    "CLASSIFICATION_TYPE": "U",
    "NORAD_CAT_ID": 25544,
    "ELEMENT_SET_NO": 999,
    "REV_AT_EPOCH": 51587,
    "BSTAR": 0.00020093,
    "MEAN_MOTION_DOT": 0.00011097,
    "MEAN_MOTION_DDOT": 0
  },
  {
    "OBJECT_NAME": "PCSAT (NO-44)",
    "OBJECT_ID": "2001-043C",
    "EPOCH": "2025-06-21T12:30:42.584544",
    "MEAN_MOTION": 14.31740019,
    "ECCENTRICITY": 0.000611,
    "INCLINATION": 67.0509,
    "RA_OF_ASC_NODE": 96.9655,
    "ARG_OF_PERICENTER": 276.4871,
    "MEAN_ANOMALY": 83.5535,
    "EPHEMERIS_TYPE": 0,
    "CLASSIFICATION_TYPE": "U",
    "NORAD_CAT_ID": 26931,
    "ELEMENT_SET_NO": 999,
    "REV_AT_EPOCH": 23897,
    "BSTAR": 6.1819e-05,
    "MEAN_MOTION_DOT": 8.2e-07,
    "MEAN_MOTION_DDOT": 0
  },
  {
    "OBJECT_NAME": "SAUDISAT 1C (SO-50)",
    "OBJECT_ID": "2002-058C",
    "EPOCH": "2025-06-21T08:44:57.773184",
    "MEAN_MOTION": 14.81652756,
    "ECCENTRICITY": 0.0057704,
    "INCLINATION": 64.5512,
    "RA_OF_ASC_NODE": 164.158,
    "ARG_OF_PERICENTER": 331.4409,
    "MEAN_ANOMALY": 28.3538,
    "EPHEMERIS_TYPE": 0,
    "CLASSIFICATION_TYPE": "U",
    "NORAD_CAT_ID": 27607,
    "ELEMENT_SET_NO": 999,
    "REV_AT_EPOCH": 21097,
    "BSTAR": 0.00014309,
    "MEAN_MOTION_DOT": 1.009e-05,
    "MEAN_MOTION_DDOT": 0
  },
  {
    "OBJECT_NAME": "CUTE-1 (CO-55)",
    "OBJECT_ID": "2003-031E",
    "EPOCH": "2025-06-21T11:37:16.978656",
    "MEAN_MOTION": 14.24004912,
    "ECCENTRICITY": 0.0010292,
    "INCLINATION": 98.6752,
    "RA_OF_ASC_NODE": 180.6038,
    "ARG_OF_PERICENTER": 146.7647,
    "MEAN_ANOMALY": 213.418,
    "EPHEMERIS_TYPE": 0,
    "CLASSIFICATION_TYPE": "U",
    "NORAD_CAT_ID": 27844,
    "ELEMENT_SET_NO": 999,
    "REV_AT_EPOCH": 14033,
    "BSTAR": 0.00012324,
    "MEAN_MOTION_DOT": 2.39e-06,
    "MEAN_MOTION_DDOT": 0
  },
  {
    "OBJECT_NAME": "CUBESAT XI-IV (CO-57)",
    "OBJECT_ID": "2003-031J",
    "EPOCH": "2025-06-19T23:05:12.663168",
    "MEAN_MOTION": 14.23337603,
    "ECCENTRICITY": 0.0009739,
    "INCLINATION": 98.6781,
    "RA_OF_ASC_NODE": 179.099,
    "ARG_OF_PERICENTER": 167.4525,
    "MEAN_ANOMALY": 192.6897,
    "EPHEMERIS_TYPE": 0,
    "CLASSIFICATION_TYPE": "U",
    "NORAD_CAT_ID": 27848,
    "ELEMENT_SET_NO": 999,
    "REV_AT_EPOCH": 13984,
    "BSTAR": 0.00011517,
    "MEAN_MOTION_DOT": 2.17e-06,
    "MEAN_MOTION_DDOT": 0
  }
]